NORAD_CAT_ID,OBJECT_NAME,OBJECT_TYPE,EPOCH,MEAN_MOTION,ECCENTRICITY,INCLINATION,RA_OF_ASC_NODE,ARG_OF_PERICENTER,MEAN_ANOMALY,BSTAR,MEAN_MOTION_DOT,MEAN_MOTION_DDOT,TLE_LINE0,TLE_LINE1,TLE_LINE2,SEMIMAJOR_AXIS,PERIOD,APOGEE,PERIGEE,DECAYED
55782.0,STARLINK-5826,PAYLOAD,2024-05-14 13:47:15,14.98315941,0.0002535,70.0013,79.1093,272.82,87.2669,0.00059097,6.963e-05,0.0,0 STARLINK-5826,1 55782U 23028AT  24135.57448396  .00006963  00000-0  59097-3 0  9990,2 55782  70.0013  79.1093 0002535 272.8200  87.2669 14.98315941 67540,6950.236,96.108,573.863,570.339,0.0
55782.0,STARLINK-5826,PAYLOAD,2024-05-14 21:47:55,14.98325133,0.000283,70.0006,78.2657,272.3437,87.7398,0.0004043,4.734e-05,0.0,0 STARLINK-5826,1 55782U 23028AT  24135.90828412  .00004734  00000-0  40430-3 0  9993,2 55782  70.0006  78.2657 0002830 272.3437  87.7398 14.98325133 67596,6950.208,96.107,574.04,570.106,0.0
55782.0,STARLINK-5826,PAYLOAD,2024-05-15 04:12:27,14.98347056,0.0002984,69.9994,77.5935,267.3094,92.7723,5.5235e-06,-2.7e-07,0.0,0 STARLINK-5826,1 55782U 23028AT  24136.17531883 -.00000027  00000-0  55235-5 0  9999,2 55782  69.9994  77.5935 0002984 267.3094  92.7723 14.98347056 67634,6950.14,96.106,574.079,569.931,0.0
55782.0,STARLINK-5826,PAYLOAD,2024-05-15 05:48:35,14.98330142,0.0002624,70.001,77.4242,262.886,97.2001,0.00033003,3.847e-05,0.0,0 STARLINK-5826,1 55782U 23028AT  24136.24208245  .00003847  00000-0  33003-3 0  9999,2 55782  70.0010  77.4242 0002624 262.8860  97.2001 14.98330142 67646,6950.192,96.107,573.881,570.234,0.0
55782.0,STARLINK-5826,PAYLOAD,2024-05-15 21:49:56,14.98340371,0.0001899,70.0033,75.7446,262.8218,97.2725,-0.00017766,-2.212e-05,0.0,0 STARLINK-5826,1 55782U 23028AT  24136.90968330 -.00002212  00000-0 -17766-3 0  9995,2 55782  70.0033  75.7446 0001899 262.8218  97.2725 14.98340371 67747,6950.161,96.106,573.346,570.706,0.0
55782.0,STARLINK-5826,PAYLOAD,2024-05-16 05:50:36,14.98343032,0.0002581,70.0011,74.9027,272.3052,87.7811,-0.00012001,-1.525e-05,0.0,0 STARLINK-5826,1 55782U 23028AT  24137.24347603 -.00001525  00000-0 -12001-3 0  9990,2 55782  70.0011  74.9027 0002581 272.3052  87.7811 14.98343032 67792,6950.153,96.106,573.811,570.224,0.0
55782.0,STARLINK-5826,PAYLOAD,2024-05-17 04:16:29,14.98334925,0.0002703,70.0007,72.5473,264.2052,95.8799,-4.9139e-05,-6.79e-06,0.0,0 STARLINK-5826,1 55782U 23028AT  24138.17811474 -.00000679  00000-0 -49139-4 0  9997,2 55782  70.0007  72.5473 0002703 264.2052  95.8799 14.98334925 67934,6950.178,96.107,573.921,570.164,0.0
55782.0,STARLINK-5826,PAYLOAD,2024-05-17 12:17:10,14.98323946,0.0002208,70.0021,71.7042,276.8794,83.2114,-0.00010759,-1.376e-05,0.0,0 STARLINK-5826,1 55782U 23028AT  24138.51192632 -.00001376  00000-0 -10759-3 0  9993,2 55782  70.0021  71.7042 0002208 276.8794  83.2114 14.98323946 67983,6950.212,96.107,573.611,570.542,0.0
55782.0,STARLINK-5826,PAYLOAD,2024-05-17 21:53:58,14.98319994,0.0002598,70.0009,70.6961,266.4424,93.6438,-8.5823e-05,-1.116e-05,0.0,0 STARLINK-5826,1 55782U 23028AT  24138.91248800 -.00001116  00000-0 -85823-4 0  9993,2 55782  70.0009  70.6961 0002598 266.4424  93.6438 14.98319994 68044,6950.224,96.108,573.895,570.283,0.0
55782.0,STARLINK-5826,PAYLOAD,2024-05-18 12:19:10,14.9834463,0.0002323,70.0021,69.1801,268.465,91.6243,-0.00013412,-1.693e-05,0.0,0 STARLINK-5826,1 55782U 23028AT  24139.51331577 -.00001693  00000-0 -13412-3 0  9998,2 55782  70.0021  69.1801 0002323 268.4650  91.6243 14.98344630 68130,6950.148,96.106,573.627,570.398,0.0
55782.0,STARLINK-5826,PAYLOAD,2024-05-18 21:55:58,14.98337813,0.0002879,70.0006,68.1701,268.7715,91.3114,4.8526e-07,-8.7e-07,0.0,0 STARLINK-5826,1 55782U 23028AT  24139.91387518 -.00000087  00000-0  48526-6 0  9990,2 55782  70.0006  68.1701 0002879 268.7715  91.3114 14.98337813 68197,6950.169,96.106,574.035,570.033,0.0
55782.0,STARLINK-5826,PAYLOAD,2024-05-19 04:20:30,14.98351081,0.0002679,70.0012,67.4975,264.0717,96.0137,-5.0191e-05,-6.92e-06,0.0,0 STARLINK-5826,1 55782U 23028AT  24140.18090725 -.00000692  00000-0 -50191-4 0  9994,2 55782  70.0012  67.4975 0002679 264.0717  96.0137 14.98351081 68233,6950.128,96.106,573.855,570.131,0.0
55782.0,STARLINK-5826,PAYLOAD,2024-05-19 20:21:52,14.98318413,0.0002645,70.0018,65.8135,270.0978,89.9878,6.4731e-05,6.79e-06,0.0,0 STARLINK-5826,1 55782U 23028AT  24140.84852584  .00000679  00000-0  64731-4 0  9994,2 55782  70.0018  65.8135 0002645 270.0978  89.9878 14.98318413 68334,6950.229,96.108,573.932,570.255,0.0
55782.0,STARLINK-5826,PAYLOAD,2024-05-20 04:22:33,14.98322054,0.0002882,70.0008,64.9716,271.9956,88.0873,-7.2156e-07,-1.02e-06,0.0,0 STARLINK-5826,1 55782U 23028AT  24141.18232703 -.00000102  00000-0 -72156-6 0  9992,2 55782  70.0008  64.9716 0002882 271.9956  88.0873 14.98322054 68383,6950.217,96.108,574.086,570.079,0.0
55782.0,STARLINK-5826,PAYLOAD,2024-05-20 20:23:53,14.98325625,0.0003164,70.0007,63.2885,272.3824,87.6973,-1.885e-05,-3.18e-06,0.0,0 STARLINK-5826,1 55782U 23028AT  24141.84992622 -.00000318  00000-0 -18850-4 0  9996,2 55782  70.0007  63.2885 0003164 272.3824  87.6973 14.98325625 68488,6950.206,96.107,574.27,569.872,0.0
55782.0,STARLINK-5826,PAYLOAD,2024-05-21 04:24:33,14.98335671,0.0002924,70.0009,62.447,266.78,93.3025,5.5198e-05,5.66e-06,0.0,0 STARLINK-5826,1 55782U 23028AT  24142.18371808  .00000566  00000-0  55198-4 0  9990,2 55782  70.0009  62.4470 0002924 266.7800  93.3025 14.98335671 68535,6950.175,96.107,574.073,570.008,0.0
55782.0,STARLINK-5826,PAYLOAD,2024-05-21 22:02:01,14.98333001,0.0003106,70.0007,60.5959,271.6804,88.3999,0.00013642,1.535e-05,0.0,0 STARLINK-5826,1 55782U 23028AT  24142.91807657  .00001535  00000-0  13642-3 0  9991,2 55782  70.0007  60.5959 0003106 271.6804  88.3999 14.98333001 68647,6950.184,96.107,574.207,569.89,0.0
55782.0,STARLINK-5826,PAYLOAD,2024-05-22 04:26:33,14.98337556,0.0002931,70.0008,59.9223,271.0375,89.0448,0.00028329,3.289e-05,0.0,0 STARLINK-5826,1 55782U 23028AT  24143.18510992  .00003289  00000-0  28329-3 0  9990,2 55782  70.0008  59.9223 0002931 271.0375  89.0448 14.98337556 68686,6950.17,96.107,574.072,569.997,0.0
55782.0,STARLINK-5826,PAYLOAD,2024-05-22 20:27:55,14.98329257,0.0002475,70.0031,58.2401,269.6894,90.3981,7.067e-05,7.5e-06,0.0,0 STARLINK-5826,1 55782U 23028AT  24143.85272006  .00000750  00000-0  70670-4 0  9992,2 55782  70.0031  58.2401 0002475 269.6894  90.3981 14.98329257 68781,6950.195,96.107,573.78,570.34,0.0
55782.0,STARLINK-5826,PAYLOAD,2024-05-23 04:28:35,14.98330757,0.0003012,70.0007,57.3989,267.2962,92.7852,-1.1124e-05,-2.26e-06,0.0,0 STARLINK-5826,1 55782U 23028AT  24144.18652009 -.00000226  00000-0 -11124-4 0  9993,2 55782  70.0007  57.3989 0003012 267.2962  92.7852 14.98330757 68839,6950.191,96.107,574.149,569.962,0.0
55782.0,STARLINK-5826,PAYLOAD,2024-05-23 20:29:55,14.98333695,0.0002906,70.0007,55.7151,269.264,90.8186,-4.7543e-05,-6.6e-06,0.0,0 STARLINK-5826,1 55782U 23028AT  24144.85411834 -.00000660  00000-0 -47543-4 0  9992,2 55782  70.0007  55.7151 0002906 269.2640  90.8186 14.98333695 68932,6950.181,96.107,574.066,570.027,0.0
55782.0,STARLINK-5826,PAYLOAD,2024-05-24 04:30:35,14.98342703,0.0002798,70.001,54.8739,270.2761,89.8078,3.2078e-05,2.9e-06,0.0,0 STARLINK-5826,1 55782U 23028AT  24145.18790916  .00000290  00000-0  32078-4 0  9994,2 55782  70.0010  54.8739 0002798 270.2761  89.8078 14.98342703 68986,6950.154,96.106,573.963,570.074,0.0
55782.0,STARLINK-5826,PAYLOAD,2024-05-24 20:31:56,14.983235,0.0002452,70.0024,53.1914,257.923,102.1654,7.4293e-05,7.93e-06,0.0,0 STARLINK-5826,1 55782U 23028AT  24145.85551896  .00000793  00000-0  74293-4 0  9993,2 55782  70.0024  53.1914 0002452 257.9230 102.1654 14.98323500 69083,6950.213,96.107,573.782,570.374,0.0
55782.0,STARLINK-5826,PAYLOAD,2024-05-24 22:08:04,14.9832333,0.0002473,70.0023,53.0233,257.924,102.1642,7.605e-05,8.14e-06,0.0,0 STARLINK-5826,1 55782U 23028AT  24145.92227920  .00000814  00000-0  76050-4 0  9996,2 55782  70.0023  53.0233 0002473 257.9240 102.1642 14.98323330 69098,6950.214,96.107,573.797,570.36,0.0
55782.0,STARLINK-5826,PAYLOAD,2024-05-25 10:57:09,14.98320944,0.0002927,70.0007,51.6755,265.0334,95.0491,-2.4513e-05,-3.85e-06,0.0,0 STARLINK-5826,1 55782U 23028AT  24146.45636313 -.00000385  00000-0 -24513-4 0  9997,2 55782  70.0007  51.6755 0002927 265.0334  95.0491 14.98320944 69170,6950.221,96.108,574.12,570.052,0.0
55782.0,STARLINK-5826,PAYLOAD,2024-05-26 02:58:30,14.98328624,0.0002932,70.0004,49.9922,267.5577,92.5247,-6.8e-05,-9.04e-06,0.0,0 STARLINK-5826,1 55782U 23028AT  24147.12396252 -.00000904  00000-0 -68000-4 0  9993,2 55782  70.0004  49.9922 0002932 267.5577  92.5247 14.98328624 69270,6950.197,96.107,574.1,570.024,0.0
55782.0,STARLINK-5826,PAYLOAD,2024-05-26 20:35:58,14.98330877,0.0002891,70.0005,48.1398,265.8562,94.2267,0.000117,1.303e-05,0.0,0 STARLINK-5826,1 55782U 23028AT  24147.85831604  .00001303  00000-0  11700-3 0  9994,2 55782  70.0005  48.1398 0002891 265.8562  94.2267 14.98330877 69384,6950.19,96.107,574.064,570.046,0.0
55782.0,STARLINK-5826,PAYLOAD,2024-05-26 22:12:06,14.98331042,0.0003022,70.0006,47.9716,268.6743,91.4069,0.00011865,1.323e-05,0.0,0 STARLINK-5826,1 55782U 23028AT  24147.92507595  .00001323  00000-0  11865-3 0  9995,2 55782  70.0006  47.9716 0003022 268.6743  91.4069 14.98331042 69390,6950.19,96.107,574.155,569.954,0.0
55782.0,STARLINK-5826,PAYLOAD,2024-05-27 11:01:11,14.98332485,0.0002329,70.0012,46.6269,280.2939,79.7957,0.00010867,1.204e-05,0.0,0 STARLINK-5826,1 55782U 23028AT  24148.45915735  .00001204  00000-0  10867-3 0  9992,2 55782  70.0012  46.6269 0002329 280.2939  79.7957 14.98332485 69478,6950.185,96.107,573.669,570.432,0.0
55782.0,STARLINK-5826,PAYLOAD,2024-05-27 20:37:59,14.98327938,0.0002757,70.0006,45.6145,262.7149,97.3697,9.0537e-05,9.87e-06,0.0,0 STARLINK-5826,1 55782U 23028AT  24148.85971731  .00000987  00000-0  90537-4 0  9994,2 55782  70.0006  45.6145 0002757 262.7149  97.3697 14.98327938 69537,6950.199,96.107,573.98,570.148,0.0
